[{"OBJECT_NAME":"DIRECTV 9S","OBJECT_ID":"2006-043A","EPOCH":"2026-02-01T21:33:49.523040","MEAN_MOTION":1.00270756,"ECCENTRICITY":0.00032028,"INCLINATION":2.0718,"RA_OF_ASC_NODE":82.6133,"ARG_OF_PERICENTER":235.8929,"MEAN_ANOMALY":35.8049,"EPHEMERIS_TYPE":0,"CLASSIFICATION_TYPE":"U","NORAD_CAT_ID":29494,"ELEMENT_SET_NO":999,"REV_AT_EPOCH":5002,"BSTAR":0,"MEAN_MOTION_DOT":-1.24e-6,"MEAN_MOTION_DDOT":0},{"OBJECT_NAME":"OPTUS D1","OBJECT_ID":"2006-043B","EPOCH":"2026-02-01T21:03:22.440384","MEAN_MOTION":1.00269097,"ECCENTRICITY":0.00037469,"INCLINATION":2.6865,"RA_OF_ASC_NODE":81.3836,"ARG_OF_PERICENTER":237.2021,"MEAN_ANOMALY":281.2472,"EPHEMERIS_TYPE":0,"CLASSIFICATION_TYPE":"U","NORAD_CAT_ID":29495,"ELEMENT_SET_NO":999,"REV_AT_EPOCH":7076,"BSTAR":0,"MEAN_MOTION_DOT":-1.96e-6,"MEAN_MOTION_DDOT":0},{"OBJECT_NAME":"BADR-4","OBJECT_ID":"2006-051A","EPOCH":"2026-02-01T21:17:38.584896","MEAN_MOTION":1.00270254,"ECCENTRICITY":0.00078849,"INCLINATION":1.656,"RA_OF_ASC_NODE":82.67,"ARG_OF_PERICENTER":239.7123,"MEAN_ANOMALY":155.3089,"EPHEMERIS_TYPE":0,"CLASSIFICATION_TYPE":"U","NORAD_CAT_ID":29526,"ELEMENT_SET_NO":999,"REV_AT_EPOCH":4991,"BSTAR":0,"MEAN_MOTION_DOT":1.34e-6,"MEAN_MOTION_DDOT":0},{"OBJECT_NAME":"WILDBLUE-1","OBJECT_ID":"2006-054A","EPOCH":"2026-02-01T21:30:57.297600","MEAN_MOTION":1.00271257,"ECCENTRICITY":0.00016887,"INCLINATION":2.4541,"RA_OF_ASC_NODE":82.2569,"ARG_OF_PERICENTER":230.3915,"MEAN_ANOMALY":30.9561,"EPHEMERIS_TYPE":0,"CLASSIFICATION_TYPE":"U","NORAD_CAT_ID":29643,"ELEMENT_SET_NO":999,"REV_AT_EPOCH":5243,"BSTAR":0,"MEAN_MOTION_DOT":-6.0e-7,"MEAN_MOTION_DDOT":0},{"OBJECT_NAME":"SKYNET 5A","OBJECT_ID":"2007-007B","EPOCH":"2026-02-01T15:39:00.156096","MEAN_MOTION":1.00273487,"ECCENTRICITY":0.00037833,"INCLINATION":4.956,"RA_OF_ASC_NODE":75.408,"ARG_OF_PERICENTER":245.7913,"MEAN_ANOMALY":140.5709,"EPHEMERIS_TYPE":0,"CLASSIFICATION_TYPE":"U","NORAD_CAT_ID":30794,"ELEMENT_SET_NO":999,"REV_AT_EPOCH":6934,"BSTAR":0,"MEAN_MOTION_DOT":-2.83e-6,"MEAN_MOTION_DDOT":0},{"OBJECT_NAME":"ANIK F3","OBJECT_ID":"2007-009A","EPOCH":"2026-02-01T16:20:41.162208","MEAN_MOTION":1.00271974,"ECCENTRICITY":0.00028593,"INCLINATION":0.8476,"RA_OF_ASC_NODE":85.6533,"ARG_OF_PERICENTER":229.7556,"MEAN_ANOMALY":302.9076,"EPHEMERIS_TYPE":0,"CLASSIFICATION_TYPE":"U","NORAD_CAT_ID":31102,"ELEMENT_SET_NO":999,"REV_AT_EPOCH":4520,"BSTAR":0,"MEAN_MOTION_DOT":-1.1e-7,"MEAN_MOTION_DDOT":0},{"OBJECT_NAME":"ASTRA 1L","OBJECT_ID":"2007-016A","EPOCH":"2026-02-01T21:58:32.153952","MEAN_MOTION":1.00079348,"ECCENTRICITY":0.00027415,"INCLINATION":0.9723,"RA_OF_ASC_NODE":82.6575,"ARG_OF_PERICENTER":250.3748,"MEAN_ANOMALY":113.8375,"EPHEMERIS_TYPE":0,"CLASSIFICATION_TYPE":"U","NORAD_CAT_ID":31306,"ELEMENT_SET_NO":999,"REV_AT_EPOCH":4363,"BSTAR":0,"MEAN_MOTION_DOT":-1.6e-6,"MEAN_MOTION_DDOT":0},{"OBJECT_NAME":"GALAXY 17 (G-17)","OBJECT_ID":"2007-016B","EPOCH":"2026-02-01T21:38:26.580192","MEAN_MOTION":1.0027013,"ECCENTRICITY":0.0004816,"INCLINATION":2.6291,"RA_OF_ASC_NODE":81.6571,"ARG_OF_PERICENTER":209.7104,"MEAN_ANOMALY":80.3173,"EPHEMERIS_TYPE":0,"CLASSIFICATION_TYPE":"U","NORAD_CAT_ID":31307,"ELEMENT_SET_NO":999,"REV_AT_EPOCH":6844,"BSTAR":0,"MEAN_MOTION_DOT":-2.17e-6,"MEAN_MOTION_DDOT":0},{"OBJECT_NAME":"ZHONGXING-6B","OBJECT_ID":"2007-031A","EPOCH":"2026-02-01T21:09:59.306688","MEAN_MOTION":0.99062899,"ECCENTRICITY":0.00107141,"INCLINATION":2.0895,"RA_OF_ASC_NODE":80.9151,"ARG_OF_PERICENTER":229.8614,"MEAN_ANOMALY":314.1199,"EPHEMERIS_TYPE":0,"CLASSIFICATION_TYPE":"U","NORAD_CAT_ID":31800,"ELEMENT_SET_NO":999,"REV_AT_EPOCH":6805,"BSTAR":0,"MEAN_MOTION_DOT":-1.96e-6,"MEAN_MOTION_DDOT":0},{"OBJECT_NAME":"DIRECTV 10","OBJECT_ID":"2007-032A","EPOCH":"2026-01-31T13:20:37.243104","MEAN_MOTION":0.99645906,"ECCENTRICITY":0.00049717,"INCLINATION":0.05,"RA_OF_ASC_NODE":116.8973,"ARG_OF_PERICENTER":254.3975,"MEAN_ANOMALY":211.1935,"EPHEMERIS_TYPE":0,"CLASSIFICATION_TYPE":"U","NORAD_CAT_ID":31862,"ELEMENT_SET_NO":999,"REV_AT_EPOCH":4422,"BSTAR":0,"MEAN_MOTION_DOT":9.0e-8,"MEAN_MOTION_DDOT":0},{"OBJECT_NAME":"INTELSAT 11 (IS-11)","OBJECT_ID":"2007-044B","EPOCH":"2026-02-01T22:02:54.236256","MEAN_MOTION":0.99052309,"ECCENTRICITY":0.00072122,"INCLINATION":3.2132,"RA_OF_ASC_NODE":80.3641,"ARG_OF_PERICENTER":190.6388,"MEAN_ANOMALY":192.4262,"EPHEMERIS_TYPE":0,"CLASSIFICATION_TYPE":"U","NORAD_CAT_ID":32253,"ELEMENT_SET_NO":999,"REV_AT_EPOCH":6711,"BSTAR":0,"MEAN_MOTION_DOT":-1.77e-6,"MEAN_MOTION_DDOT":0},{"OBJECT_NAME":"WGS F1 (USA 195)","OBJECT_ID":"2007-046A","EPOCH":"2026-02-01T18:25:07.603968","MEAN_MOTION":1.00270936,"ECCENTRICITY":5.398e-5,"INCLINATION":0.0979,"RA_OF_ASC_NODE":86.2811,"ARG_OF_PERICENTER":228.2172,"MEAN_ANOMALY":51.2283,"EPHEMERIS_TYPE":0,"CLASSIFICATION_TYPE":"U","NORAD_CAT_ID":32258,"ELEMENT_SET_NO":999,"REV_AT_EPOCH":5097,"BSTAR":0,"MEAN_MOTION_DOT":-2.77e-6,"MEAN_MOTION_DDOT":0},{"OBJECT_NAME":"SKYNET 5B","OBJECT_ID":"2007-056B","EPOCH":"2026-02-01T20:27:10.906848","MEAN_MOTION":1.00269776,"ECCENTRICITY":0.00040087,"INCLINATION":4.907,"RA_OF_ASC_NODE":75.1415,"ARG_OF_PERICENTER":240.2229,"MEAN_ANOMALY":148.533,"EPHEMERIS_TYPE":0,"CLASSIFICATION_TYPE":"U","NORAD_CAT_ID":32294,"ELEMENT_SET_NO":999,"REV_AT_EPOCH":6684,"BSTAR":0,"MEAN_MOTION_DOT":1.28e-6,"MEAN_MOTION_DDOT":0},{"OBJECT_NAME":"ASTRA 4A","OBJECT_ID":"2007-057A","EPOCH":"2026-02-01T21:49:38.589888","MEAN_MOTION":1.0027171,"ECCENTRICITY":0.00024771,"INCLINATION":0.0216,"RA_OF_ASC_NODE":290.4825,"ARG_OF_PERICENTER":20.6621,"MEAN_ANOMALY":153.1954,"EPHEMERIS_TYPE":0,"CLASSIFICATION_TYPE":"U","NORAD_CAT_ID":32299,"ELEMENT_SET_NO":999,"REV_AT_EPOCH":5029,"BSTAR":0,"MEAN_MOTION_DOT":0,"MEAN_MOTION_DDOT":0},{"OBJECT_NAME":"HORIZONS-2","OBJECT_ID":"2007-063B","EPOCH":"2026-02-01T21:41:41.268768","MEAN_MOTION":1.00269106,"ECCENTRICITY":0.00039662,"INCLINATION":2.2536,"RA_OF_ASC_NODE":82.3569,"ARG_OF_PERICENTER":221.9622,"MEAN_ANOMALY":79.3721,"EPHEMERIS_TYPE":0,"CLASSIFICATION_TYPE":"U","NORAD_CAT_ID":32388,"ELEMENT_SET_NO":999,"REV_AT_EPOCH":6645,"BSTAR":0,"MEAN_MOTION_DOT":-2.64e-6,"MEAN_MOTION_DDOT":0},{"OBJECT_NAME":"THURAYA-3","OBJECT_ID":"2008-001A","EPOCH":"2026-02-01T22:30:51.556608","MEAN_MOTION":1.00271079,"ECCENTRICITY":0.00026283,"INCLINATION":5.7599,"RA_OF_ASC_NODE":35.5452,"ARG_OF_PERICENTER":272.9443,"MEAN_ANOMALY":259.8425,"EPHEMERIS_TYPE":0,"CLASSIFICATION_TYPE":"U","NORAD_CAT_ID":32404,"ELEMENT_SET_NO":999,"REV_AT_EPOCH":6613,"BSTAR":0,"MEAN_MOTION_DOT":-3.11e-6,"MEAN_MOTION_DDOT":0},{"OBJECT_NAME":"THOR 5","OBJECT_ID":"2008-006A","EPOCH":"2026-02-01T22:02:31.771392","MEAN_MOTION":1.00273659,"ECCENTRICITY":0.00027313,"INCLINATION":0.0591,"RA_OF_ASC_NODE":260.3197,"ARG_OF_PERICENTER":57.3143,"MEAN_ANOMALY":144.3503,"EPHEMERIS_TYPE":0,"CLASSIFICATION_TYPE":"U","NORAD_CAT_ID":32487,"ELEMENT_SET_NO":999,"REV_AT_EPOCH":6596,"BSTAR":0,"MEAN_MOTION_DOT":-1.9e-7,"MEAN_MOTION_DDOT":0},{"OBJECT_NAME":"AMC-14","OBJECT_ID":"2008-011A","EPOCH":"2026-01-28T02:42:38.803104","MEAN_MOTION":1.00306822,"ECCENTRICITY":0.00450314,"INCLINATION":23.839,"RA_OF_ASC_NODE":22.2067,"ARG_OF_PERICENTER":351.7555,"MEAN_ANOMALY":189.0296,"EPHEMERIS_TYPE":0,"CLASSIFICATION_TYPE":"U","NORAD_CAT_ID":32708,"ELEMENT_SET_NO":999,"REV_AT_EPOCH":6676,"BSTAR":0,"MEAN_MOTION_DOT":1.06e-6,"MEAN_MOTION_DDOT":0},{"OBJECT_NAME":"DIRECTV 11","OBJECT_ID":"2008-013A","EPOCH":"2026-02-01T21:34:26.962752","MEAN_MOTION":1.0027078,"ECCENTRICITY":3.23e-5,"INCLINATION":0.0031,"RA_OF_ASC_NODE":317.4989,"ARG_OF_PERICENTER":340.2777,"MEAN_ANOMALY":58.7047,"EPHEMERIS_TYPE":0,"CLASSIFICATION_TYPE":"U","NORAD_CAT_ID":32729,"ELEMENT_SET_NO":999,"REV_AT_EPOCH":4423,"BSTAR":0,"MEAN_MOTION_DOT":-1.35e-6,"MEAN_MOTION_DDOT":0},{"OBJECT_NAME":"ICO G1","OBJECT_ID":"2008-016A","EPOCH":"2026-02-01T21:36:19.282752","MEAN_MOTION":1.00272342,"ECCENTRICITY":0.00027258,"INCLINATION":5.514,"RA_OF_ASC_NODE":36.4882,"ARG_OF_PERICENTER":262.3167,"MEAN_ANOMALY":64.5083,"EPHEMERIS_TYPE":0,"CLASSIFICATION_TYPE":"U","NORAD_CAT_ID":32763,"ELEMENT_SET_NO":999,"REV_AT_EPOCH":6518,"BSTAR":0,"MEAN_MOTION_DOT":-1.82e-6,"MEAN_MOTION_DDOT":0},{"OBJECT_NAME":"VINASAT-1","OBJECT_ID":"2008-018A","EPOCH":"2026-02-01T22:40:20.649216","MEAN_MOTION":1.00270624,"ECCENTRICITY":0.00020179,"INCLINATION":0.0374,"RA_OF_ASC_NODE":274.6464,"ARG_OF_PERICENTER":69.1315,"MEAN_ANOMALY":260.3585,"EPHEMERIS_TYPE":0,"CLASSIFICATION_TYPE":"U","NORAD_CAT_ID":32767,"ELEMENT_SET_NO":999,"REV_AT_EPOCH":6523,"BSTAR":0,"MEAN_MOTION_DOT":-3.38e-6,"MEAN_MOTION_DDOT":0},{"OBJECT_NAME":"STAR ONE C2","OBJECT_ID":"2008-018B","EPOCH":"2026-02-01T21:44:11.030208","MEAN_MOTION":1.00271077,"ECCENTRICITY":0.00026566,"INCLINATION":0.8946,"RA_OF_ASC_NODE":83.7682,"ARG_OF_PERICENTER":234.4142,"MEAN_ANOMALY":74.9325,"EPHEMERIS_TYPE":0,"CLASSIFICATION_TYPE":"U","NORAD_CAT_ID":32768,"ELEMENT_SET_NO":999,"REV_AT_EPOCH":6529,"BSTAR":0,"MEAN_MOTION_DOT":-2.87e-6,"MEAN_MOTION_DDOT":0},{"OBJECT_NAME":"AMOS-3","OBJECT_ID":"2008-022A","EPOCH":"2026-02-01T22:01:31.866816","MEAN_MOTION":1.00270911,"ECCENTRICITY":0.00030175,"INCLINATION":0.1056,"RA_OF_ASC_NODE":90.5712,"ARG_OF_PERICENTER":170.9058,"MEAN_ANOMALY":196.8562,"EPHEMERIS_TYPE":0,"CLASSIFICATION_TYPE":"U","NORAD_CAT_ID":32794,"ELEMENT_SET_NO":999,"REV_AT_EPOCH":8098,"BSTAR":0,"MEAN_MOTION_DOT":-4.6e-7,"MEAN_MOTION_DDOT":0},{"OBJECT_NAME":"GALAXY 18 (G-18)","OBJECT_ID":"2008-024A","EPOCH":"2026-02-01T18:02:02.315616","MEAN_MOTION":1.0026929,"ECCENTRICITY":0.00032145,"INCLINATION":0.0145,"RA_OF_ASC_NODE":101.1584,"ARG_OF_PERICENTER":222.8687,"MEAN_ANOMALY":315.4257,"EPHEMERIS_TYPE":0,"CLASSIFICATION_TYPE":"U","NORAD_CAT_ID":32951,"ELEMENT_SET_NO":999,"REV_AT_EPOCH":4449,"BSTAR":0,"MEAN_MOTION_DOT":0,"MEAN_MOTION_DDOT":0}]
